{
  "type": "FeatureCollection",
  "features": [
    {
      "type": "Feature",
      "properties": {
        "norad_id": 44333,
        "name": "AT&T T-16",
        "group": "intelsat",
        "lat": 0.007252525455072323,
        "lon": 43.524209009765656,
        "alt_km": 35786.65239851619,
        "timestamp": "2025-12-15T04:01:20.110889+00:00",
        "meta_object_name": "AT&T T-16",
        "meta_object_id": "2019-034A",
        "meta_epoch": "2025-12-14T07:45:38.704032",
        "meta_mean_motion": 1.00269585,
        "meta_eccentricity": 6.69e-05,
        "meta_inclination": 0.0267,
        "meta_ra_of_asc_node": 71.2439,
        "meta_arg_of_pericenter": 61.2679,
        "meta_mean_anomaly": 326.2825,
        "meta_ephemeris_type": 0,
        "meta_classification_type": "U",
        "meta_norad_cat_id": 44333,
        "meta_element_set_no": 999,
        "meta_rev_at_epoch": 2378,
        "meta_bstar": 0,
        "meta_mean_motion_dot": -9.7e-07,
        "meta_mean_motion_ddot": 0,
        "tle_line1": "1 44333U 19034A   25348.32336463 -.00000097  00000+0  00000+0 0  9991",
        "tle_line2": "2 44333   0.0267  71.2439 0000669  61.2679 326.2825  1.00269585 23786"
      },
      "geometry": {
        "type": "Point",
        "coordinates": [
          43.524209009765656,
          0.007252525455072323
        ]
      }
    },
    {
      "type": "Feature",
      "properties": {
        "norad_id": 44476,
        "name": "INTELSAT 39 (IS-39)",
        "group": "intelsat",
        "lat": -0.033055476249889894,
        "lon": -153.64421439629245,
        "alt_km": 35783.97193548227,
        "timestamp": "2025-12-15T04:01:20.110901+00:00",
        "meta_object_name": "INTELSAT 39 (IS-39)",
        "meta_object_id": "2019-049B",
        "meta_epoch": "2025-12-14T03:26:24.804960",
        "meta_mean_motion": 1.00270731,
        "meta_eccentricity": 0.00012438,
        "meta_inclination": 0.0177,
        "meta_ra_of_asc_node": 321.5567,
        "meta_arg_of_pericenter": 181.5951,
        "meta_mean_anomaly": 53.4651,
        "meta_ephemeris_type": 0,
        "meta_classification_type": "U",
        "meta_norad_cat_id": 44476,
        "meta_element_set_no": 999,
        "meta_rev_at_epoch": 2327,
        "meta_bstar": 0,
        "meta_mean_motion_dot": 5.1e-07,
        "meta_mean_motion_ddot": 0,
        "tle_line1": "1 44476U 19049B   25348.14334265  .00000051  00000+0  00000+0 0  9992",
        "tle_line2": "2 44476   0.0177 321.5567 0001243 181.5951  53.4651  1.00270731 23270"
      },
      "geometry": {
        "type": "Point",
        "coordinates": [
          -153.64421439629245,
          -0.033055476249889894
        ]
      }
    },
    {
      "type": "Feature",
      "properties": {
        "norad_id": 46114,
        "name": "GALAXY 30 (G-30)",
        "group": "intelsat",
        "lat": 0.02430592604178464,
        "lon": 19.438633792914285,
        "alt_km": 35789.51621085133,
        "timestamp": "2025-12-15T04:01:20.110913+00:00",
        "meta_object_name": "GALAXY 30 (G-30)",
        "meta_object_id": "2020-056C",
        "meta_epoch": "2025-12-13T23:07:42.447072",
        "meta_mean_motion": 1.00273374,
        "meta_eccentricity": 0.00021647,
        "meta_inclination": 0.0184,
        "meta_ra_of_asc_node": 346.092,
        "meta_arg_of_pericenter": 277.7385,
        "meta_mean_anomaly": 40.9949,
        "meta_ephemeris_type": 0,
        "meta_classification_type": "U",
        "meta_norad_cat_id": 46114,
        "meta_element_set_no": 999,
        "meta_rev_at_epoch": 1943,
        "meta_bstar": 0,
        "meta_mean_motion_dot": 5.3e-07,
        "meta_mean_motion_ddot": 0,
        "tle_line1": "1 46114U 20056C   25347.96368573  .00000053  00000+0  00000+0 0  9993",
        "tle_line2": "2 46114   0.0184 346.0920 0002164 277.7385  40.9949  1.00273374 19436"
      },
      "geometry": {
        "type": "Point",
        "coordinates": [
          19.438633792914285,
          0.02430592604178464
        ]
      }
    },
    {
      "type": "Feature",
      "properties": {
        "norad_id": 54026,
        "name": "GALAXY 33 (G-33)",
        "group": "intelsat",
        "lat": 0.018252698800763103,
        "lon": 11.422453726060125,
        "alt_km": 35789.20516415266,
        "timestamp": "2025-12-15T04:01:20.110924+00:00",
        "meta_object_name": "GALAXY 33 (G-33)",
        "meta_object_id": "2022-128A",
        "meta_epoch": "2025-12-14T05:56:17.947680",
        "meta_mean_motion": 1.00272373,
        "meta_eccentricity": 0.00018894,
        "meta_inclination": 0.0059,
        "meta_ra_of_asc_node": 323.3615,
        "meta_arg_of_pericenter": 293.084,
        "meta_mean_anomaly": 142.7992,
        "meta_ephemeris_type": 0,
        "meta_classification_type": "U",
        "meta_norad_cat_id": 54026,
        "meta_element_set_no": 999,
        "meta_rev_at_epoch": 1188,
        "meta_bstar": 0,
        "meta_mean_motion_dot": 9.7e-07,
        "meta_mean_motion_ddot": 0,
        "tle_line1": "1 54026U 22128A   25348.24742995  .00000097  00000+0  00000+0 0  9990",
        "tle_line2": "2 54026   0.0059 323.3615 0001889 293.0840 142.7992  1.00272373 11885"
      },
      "geometry": {
        "type": "Point",
        "coordinates": [
          11.422453726060125,
          0.018252698800763103
        ]
      }
    },
    {
      "type": "Feature",
      "properties": {
        "norad_id": 54027,
        "name": "GALAXY 34 (G-34)",
        "group": "intelsat",
        "lat": 0.01627700478869474,
        "lon": 15.479585835923494,
        "alt_km": 35788.97446043386,
        "timestamp": "2025-12-15T04:01:20.110936+00:00",
        "meta_object_name": "GALAXY 34 (G-34)",
        "meta_object_id": "2022-128B",
        "meta_epoch": "2025-12-14T05:57:25.339680",
        "meta_mean_motion": 1.00270617,
        "meta_eccentricity": 0.00014639,
        "meta_inclination": 0.0218,
        "meta_ra_of_asc_node": 2.3881,
        "meta_arg_of_pericenter": 257.8745,
        "meta_mean_anomaly": 143.3311,
        "meta_ephemeris_type": 0,
        "meta_classification_type": "U",
        "meta_norad_cat_id": 54027,
        "meta_element_set_no": 999,
        "meta_rev_at_epoch": 1205,
        "meta_bstar": 0,
        "meta_mean_motion_dot": 0,
        "meta_mean_motion_ddot": 0,
        "tle_line1": "1 54027U 22128B   25348.24820995  .00000000  00000+0  00000+0 0  9992",
        "tle_line2": "2 54027   0.0218   2.3881 0001463 257.8745 143.3311  1.00270617 12053"
      },
      "geometry": {
        "type": "Point",
        "coordinates": [
          15.479585835923494,
          0.01627700478869474
        ]
      }
    },
    {
      "type": "Feature",
      "properties": {
        "norad_id": 54243,
        "name": "GALAXY 31 (G-31)",
        "group": "intelsat",
        "lat": 0.02301863998454149,
        "lon": 23.40426907362352,
        "alt_km": 35788.004216360816,
        "timestamp": "2025-12-15T04:01:20.110947+00:00",
        "meta_object_name": "GALAXY 31 (G-31)",
        "meta_object_id": "2022-153A",
        "meta_epoch": "2025-12-14T06:25:37.137216",
        "meta_mean_motion": 1.00270881,
        "meta_eccentricity": 0.00014985,
        "meta_inclination": 0.0121,
        "meta_ra_of_asc_node": 344.4257,
        "meta_arg_of_pericenter": 293.3725,
        "meta_mean_anomaly": 140.7866,
        "meta_ephemeris_type": 0,
        "meta_classification_type": "U",
        "meta_norad_cat_id": 54243,
        "meta_element_set_no": 999,
        "meta_rev_at_epoch": 527,
        "meta_bstar": 0,
        "meta_mean_motion_dot": 0,
        "meta_mean_motion_ddot": 0,
        "tle_line1": "1 54243U 22153A   25348.26779094  .00000000  00000+0  00000+0 0  9995",
        "tle_line2": "2 54243   0.0121 344.4257 0001498 293.3725 140.7866  1.00270881  5279"
      },
      "geometry": {
        "type": "Point",
        "coordinates": [
          23.40426907362352,
          0.02301863998454149
        ]
      }
    },
    {
      "type": "Feature",
      "properties": {
        "norad_id": 54244,
        "name": "GALAXY 32 (G-32)",
        "group": "intelsat",
        "lat": 0.0256697476747547,
        "lon": 53.42925394619137,
        "alt_km": 35788.18384714736,
        "timestamp": "2025-12-15T04:01:20.110959+00:00",
        "meta_object_name": "GALAXY 32 (G-32)",
        "meta_object_id": "2022-153B",
        "meta_epoch": "2025-12-12T13:02:51.144864",
        "meta_mean_motion": 1.00272099,
        "meta_eccentricity": 0.00025848,
        "meta_inclination": 0.0111,
        "meta_ra_of_asc_node": 11.8146,
        "meta_arg_of_pericenter": 300.84,
        "meta_mean_anomaly": 233.5475,
        "meta_ephemeris_type": 0,
        "meta_classification_type": "U",
        "meta_norad_cat_id": 54244,
        "meta_element_set_no": 999,
        "meta_rev_at_epoch": 1127,
        "meta_bstar": 0,
        "meta_mean_motion_dot": -1.63e-06,
        "meta_mean_motion_ddot": 0,
        "tle_line1": "1 54244U 22153B   25346.54364751 -.00000163  00000+0  00000+0 0  9996",
        "tle_line2": "2 54244   0.0111  11.8146 0002584 300.8400 233.5475  1.00272099 11279"
      },
      "geometry": {
        "type": "Point",
        "coordinates": [
          53.42925394619137,
          0.0256697476747547
        ]
      }
    }
  ]
}